STARLINK-36621          
1 67561U 26016A   26054.43297995  .00444008  00000+0  28159-2 0  9991
2 67561  97.2816 114.1331 0002663 104.2289 255.9272 15.75270591  4555
STARLINK-36398          
1 67562U 26016B   26054.12274249  .00203179  00000+0  13284-2 0  9990
2 67562  97.2838 113.7887 0001425  11.6206 348.5092 15.75234110  4507
STARLINK-36403          
1 67563U 26016C   26054.83335647  .00026765  00000+0  17974-3 0  9994
2 67563  97.2853 114.6528 0001618 107.0358 227.9193 15.75190352  5927
STARLINK-36593          
1 67564U 26016D   26054.58968655  .00290942  00000+0  18826-2 0  9994
2 67564  97.2841 114.3813 0001811 355.1475   4.9772 15.75228816  4584
STARLINK-35725          
1 67565U 26016E   26054.73827055  .00308260  00000+0  19953-2 0  9995
2 67565  97.2839 114.4842 0001117 118.5724 241.5654 15.75172958  4608
STARLINK-36394          
1 67566U 26016F   26054.42237814  .00272956  00000+0  17641-2 0  9994
2 67566  97.2853 114.1454 0001829 112.3194 247.8265 15.75306636  4557
STARLINK-36352          
1 67567U 26016G   26054.83335647  .00021596  00000+0  14536-3 0  9996
2 67567  97.2855 114.6647 0000704 101.7041 267.2611 15.75180102  5823
STARLINK-36435          
1 67568U 26016H   26053.61816991  .00531051  00000+0  26160-2 0  9995
2 67568  97.2845 113.4031 0004047 339.2977  20.8126 15.80747366  4434
STARLINK-36575          
1 67569U 26016J   26054.62968529  .00708938  00000+0  33703-2 0  9994
2 67569  97.2833 114.4802 0001665  70.9909 289.1539 15.81071454  4590
STARLINK-36562          
1 67570U 26016K   26054.83335647 -.00175880  00000+0 -11985-2 0  9992
2 67570  97.2850 114.6694 0001343  81.6901 297.2440 15.75270323  5823
STARLINK-36578          
1 67571U 26016L   26054.10686150  .00236988  00000+0  15406-2 0  9998
2 67571  97.2844 113.8106 0001286 112.4426 247.6975 15.75271868  4508
STARLINK-36350          
1 67572U 26016M   26054.60732859  .00364015  00000+0  23236-2 0  9995
2 67572  97.2840 114.3531 0001296 306.3934  53.7211 15.75341044  4583
STARLINK-36588          
1 67573U 26016N   26054.73650550  .00203325  00000+0  13300-2 0  9994
2 67573  97.2844 114.4848 0001170  82.7040 277.4358 15.75221763  4609
STARLINK-36594          
1 67574U 26016P   26054.83335647 -.00005159  00000+0 -33852-4 0  9996
2 67574  97.2853 114.6741 0001381  59.1293 331.9600 15.75114263  5878
STARLINK-36400          
1 67575U 26016Q   26054.59180522  .00287348  00000+0  18571-2 0  9999
2 67575  97.2860 114.3770 0001232  99.6433 260.4971 15.75266918  4585
STARLINK-36591          
1 67576U 26016R   26054.57980530  .00230375  00000+0  15029-2 0  9998
2 67576  97.2842 114.3914 0001449  38.7801 321.3568 15.75208486  4584
STARLINK-36590          
1 67577U 26016S   26054.40509686  .00290692  00000+0  18778-2 0  9992
2 67577  97.2863 114.1698 0002120  97.9026 262.2480 15.75268674  4556
STARLINK-36613          
1 67578U 26016T   26054.83335647 -.01973342  00000+0 -13577-1 0  9998
2 67578  97.2840 114.7154 0001789  68.4289  61.6285 15.77838318  5824
STARLINK-36571          
1 67579U 26016U   26054.59956449  .00346294  00000+0  22224-2 0  9998
2 67579  97.2855 114.3655 0000572 305.7855  54.3357 15.75264564  4583
STARLINK-36612          
1 67580U 26016V   26051.13575919  .00083853  00000+0  43353-3 0  9992
2 67580  97.2829 110.8096 0001622  91.3110 268.8344 15.80855073  4041
STARLINK-36632          
1 67581U 26016W   26054.58757258  .00359890  00000+0  23042-2 0  9992
2 67581  97.2846 114.3813 0001412  35.4475 324.6884 15.75282775  4583
STARLINK-36609          
1 67582U 26016X   26054.41286889  .00206994  00000+0  13544-2 0  9994
2 67582  97.2850 114.1593 0002323 106.7775 253.3745 15.75203514  4554
STARLINK-36577          
1 67583U 26016Y   26054.58335648  .00215539  00000+0  14147-2 0  9996
2 67583  97.2843 114.4497 0001344  88.2770  55.9707 15.75109171  5788
STARLINK-36419          
1 67584U 26016Z   26054.12698552  .00158871  00000+0  10457-2 0  9998
2 67584  97.2841 113.9376 0002039   7.4336 352.6959 15.75201830  4511
STARLINK-36560          
1 67585U 26016AA  26054.58335648  .00156367  00000+0  10330-2 0  9991
2 67585  97.2843 114.4609 0001692  87.1277  81.1197 15.75124879  5721
NAVSTAR 85 (USA 581)    
1 67588U 26017A   26054.02377539  .00000001  00000+0  00000+0 0  9992
2 67588  55.0119  93.3358 0001141  31.5498 328.5234  2.00560997429320
STARLINK-36641          
1 67589U 26018A   26054.64449098  .00317071  00000+0  20425-2 0  9996
2 67589  97.2840 119.7115 0001506  79.7537 280.3898 15.75259814  5091
STARLINK-36376          
1 67590U 26018B   26054.43590158  .00322358  00000+0  20748-2 0  9991
2 67590  97.2843 119.5363 0002299 100.6940 259.4584 15.75265094  5064
STARLINK-36391          
1 67591U 26018C   26054.16165904  .00200432  00000+0  10206-2 0  9995
2 67591  97.2852 119.2967 0000783  43.5415 316.5915 15.80872767  5026
STARLINK-36603          
1 67592U 26018D   26054.43166617  .00306009  00000+0  19733-2 0  9999
2 67592  97.2846 119.5419 0002368 117.1315 243.0192 15.75266219  5061
STARLINK-36634          
1 67593U 26018E   26054.83335647 -.00187922  00000+0 -12824-2 0  9992
2 67593  97.2852 119.9824 0001407  76.4357  83.9586 15.75270007  5113
STARLINK-36638          
1 67594U 26018F   26054.15865973  .00485097  00000+0  23739-2 0  9997
2 67594  97.2840 119.3010 0002059 121.2493 238.8977 15.81011888  5028
STARLINK-36628          
1 67595U 26018G   26054.63213335  .00417191  00000+0  26548-2 0  9991
2 67595  97.2838 119.7277 0000692  12.6481 347.4802 15.75263684  5093
STARLINK-36629          
1 67596U 26018H   26054.44931442  .00322813  00000+0  20806-2 0  9994
2 67596  97.2840 119.5164 0002538 118.0383 242.1140 15.75231232  5060
STARLINK-36384          
1 67597U 26018J   26054.83335647 -.00162560  00000+0 -11055-2 0  9992
2 67597  97.2860 120.0176 0001650  80.0549 162.3256 15.75278438  5171
STARLINK-36358          
1 67598U 26018K   26054.12566999  .00415763  00000+0  26358-2 0  9997
2 67598  97.2841 119.1917 0002107 124.8233 235.3230 15.75356967  5018
STARLINK-36582          
1 67599U 26018L   26054.66670139  .00038128  00000+0  25534-3 0  9991
2 67599  97.2850 119.7972 0001281  92.9406 181.0488 15.75191718  5209
STARLINK-36640          
1 67600U 26018M   26054.44719712  .00301980  00000+0  19529-2 0  9996
2 67600  97.2833 119.5183 0002076  95.2460 264.9042 15.75211445  5065
STARLINK-36635          
1 67601U 26018N   26054.83335647 -.00148402  00000+0 -10082-2 0  9996
2 67601  97.2858 120.0034 0001584 104.8479 103.5371 15.75263894  5120
STARLINK-36631          
1 67602U 26018P   26054.83335647 -.00102966  00000+0 -69700-3 0  9994
2 67602  97.2854 120.0229 0001420  86.3583 168.0591 15.75216038  5119
STARLINK-36626          
1 67603U 26018Q   26054.42178341  .00315867  00000+0  20335-2 0  9990
2 67603  97.2854 119.5558 0001817 120.6604 239.4841 15.75278184  5069
STARLINK-36605          
1 67604U 26018R   26054.43943070  .00324730  00000+0  20908-2 0  9996
2 67604  97.2844 119.5299 0002293 107.8414 252.3102 15.75250185  5061
STARLINK-36281          
1 67605U 26018S   26054.59236842  .00404624  00000+0  20057-2 0  9992
2 67605  97.2844 119.7808 0001546  28.6336 331.5017 15.80936168  5099
STARLINK-35843          
1 67606U 26018T   26054.43378303  .00280897  00000+0  18165-2 0  9996
2 67606  97.2868 119.5384 0002240  90.2638 269.8884 15.75270190  5067
STARLINK-36351          
1 67607U 26018U   26054.16590332  .00244217  00000+0  15868-2 0  9998
2 67607  97.2856 119.2911 0001355  61.4077 298.7324 15.75263202  5023
STARLINK-36411          
1 67608U 26018V   26054.14407931 -.00026419  00000+0 -13809-3 0  9997
2 67608  97.2849 119.3189 0000472 338.7837  21.3411 15.80740032  5021
STARLINK-36312          
1 67609U 26018W   26054.41790088  .00306539  00000+0  19758-2 0  9996
2 67609  97.2844 119.5609 0001950  87.7850 272.3638 15.75275526  5062
STARLINK-36387          
1 67610U 26018X   26054.64788973  .00711964  00000+0  33835-2 0  9997
2 67610  97.2837 119.8574 0002147  69.2835 290.8663 15.81072908  5101
STARLINK-36636          
1 67611U 26018Y   26054.83335647 -.00189179  00000+0 -12910-2 0  9995
2 67611  97.2865 120.0325 0001541  75.1194 213.2612 15.75272547  5121
STARLINK-36407          
1 67612U 26018Z   26054.60214164  .00272266  00000+0  17638-2 0  9991
2 67612  97.2848 119.7708 0001106  54.7983 305.3386 15.75253883  5144
STARLINK-36597          
1 67613U 26018AA  26054.64487647  .00695828  00000+0  33122-2 0  9993
2 67613  97.2850 119.8621 0002028  36.2073 323.9332 15.81078279  5106
NEONSAT-1A              
1 67614U 26019A   26054.70966603  .00003705  00000+0  24662-3 0  9993
2 67614  97.4095 178.7890 0012605 217.4410 142.5941 15.07662935  3714
ELECTRON KICK STAGE R/B 
1 67616U 26019C   26054.75668268  .00552138  97532-4  20811-2 0  9997
2 67616  97.4007 180.8581 0149891 172.6146 187.7377 15.72285688  3853
STARLINK-36548          
1 67617U 26020A   26054.83335647  .00044368  00000+0  27431-3 0  9997
2 67617  42.9993 226.4994 0001588 281.6458 234.6937 15.76342268  5167
STARLINK-36601          
1 67618U 26020B   26054.83335647 -.00009265  00000+0 -53965-4 0  9999
2 67618  42.9992 225.8782 0001596 274.4071 130.7430 15.76364582  5162
STARLINK-36119          
1 67619U 26020C   26053.85325564  .00085182  00000+0  52003-3 0  9999
2 67619  42.9979 232.4229 0001530 284.7619  75.3081 15.76401836  3740
STARLINK-36607          
1 67620U 26020D   26054.83335647  .00026337  00000+0  16448-3 0  9993
2 67620  42.9993 226.0335 0001445 265.1934  77.7670 15.76330143  5163
STARLINK-36615          
1 67621U 26020E   26054.75480068  .00402035  00000+0  18772-2 0  9997
2 67621  42.9981 226.2491 0005123 132.7337 227.3967 15.81395077  3892
STARLINK-36614          
1 67622U 26020F   26053.84886925  .00138510  00000+0  83608-3 0  9994
2 67622  42.9988 232.3866 0002584 287.6022  72.4565 15.76463187  3742
